GSAT0210 (GALILEO 13)   
1 41550U 16030B   26176.26585571  .00000056  00000+0  00000+0 0  9995
2 41550  55.0912 221.4705 0008659 257.5264 102.4641  1.70473937 62804
THAICOM 8               
1 41552U 16031A   26178.18022924 -.00000110  00000+0  00000+0 0  9991
2 41552   0.0726  48.2454 0003825  18.4607 351.9596  1.00272227 36814
ZIYUAN 3-02 (ZY 3-02)   
1 41556U 16033A   26178.31943735  .00005355  00000+0  24220-3 0  9993
2 41556  97.3839 253.8987 0012511 251.4058 108.5820 15.21272539559526
COSMOS 2517 (GEO-IK 2)  
1 41579U 16034A   26178.32251389  .00000003  00000+0  40612-4 0  9996
2 41579  99.1878 186.9158 0001037  89.7097 270.4178 13.85911160509030
INTELSAT 31 (IS-31)     
1 41581U 16035A   26178.24862675 -.00000139  00000+0  00000+0 0  9990
2 41581   0.0144 289.9489 0000602 334.4134   5.4535  1.00271675 36784
BEIDOU-2 G7             
1 41586U 16037A   26178.11521071 -.00000343  00000+0  00000+0 0  9992
2 41586   1.7449  69.4127 0006845   1.5210 356.3270  1.00272312  6989
ABS-2A (MONGOLSAT-1)    
1 41588U 16038A   26178.10819067  .00000000  00000+0  00000+0 0  9998
2 41588   0.0262   6.4067 0001746  35.6984 346.8174  1.00267072 36809
EUTELSAT 117 WEST B     
1 41589U 16038B   26178.07020868  .00000000  00000+0  00000+0 0  9998
2 41589   0.0096 147.4865 0000451 108.1501 287.8476  1.00274127 36763
BRISAT                  
1 41591U 16039A   26178.15878359 -.00000184  00000+0  00000+0 0  9991
2 41591   0.0191 325.5043 0002123 125.5768  31.8459  1.00273599 36710
ECHOSTAR 18             
1 41592U 16039B   26178.17892080  .00000000  00000+0  00000+0 0  9997
2 41592   0.0281  21.2244 0001806  78.6813 178.4315  1.00268438 36726
CARTOSAT-2C             
1 41599U 16040A   26178.26960269  .00004170  00000+0  20075-3 0  9991
2 41599  97.4484 238.1088 0010542 100.8453 259.3969 15.19267674555241
SKYSAT-C1               
1 41601U 16040C   26178.05111674  .00009636  00000+0  27289-3 0  9996
2 41601  96.9564 209.2368 0002527  37.9380 322.2043 15.36462513559381
LAPAN-A3                
1 41603U 16040E   26178.30773625  .00003963  00000+0  12589-3 0  9990
2 41603  97.1487 174.1210 0009602 350.3537   9.7520 15.33168965556366
MUOS-5                  
1 41622U 16041A   26178.21542858 -.00000133  00000+0  00000+0 0  9992
2 41622   2.1820 301.8503 0198018 260.6024  45.2428  1.00273348 37189
SJ 16-02                
1 41634U 16043A   26178.32516013  .00001475  00000+0  14244-3 0  9991
2 41634  75.0033 259.7831 0007723   1.3241 358.7967 14.93605573542653
TIANTONG-1 1            
1 41725U 16048A   26178.11347736 -.00000309  00000+0  00000+0 0  9995
2 41725   3.8680  43.5006 0005922  49.3638 324.6397  1.00271076 36372
GAOFEN-3                
1 41727U 16049A   26178.28254238  .00000281  00000+0  98566-4 0  9997
2 41727  98.4012 185.9161 0001610  97.6427 262.4946 14.42217456520108
JCSAT-16                
1 41729U 16050A   26177.90803286 -.00000240  00000+0  00000+0 0  9999
2 41729   0.0179  14.0448 0001301  89.4455 282.3758  1.00271139 36168
USA 270                 
1 41744U 16052A   26176.62624484 -.00000284  00000+0  00000+0 0  9995
2 41744   4.2178  77.0981 0000668 157.1810  56.2495  0.99500516 28218
USA 271                 
1 41745U 16052B   26176.75914149 -.00000236  00000+0  00000+0 0  9997
2 41745   4.1909  77.1447 0001955 290.7679 281.9940  0.99833204 28007
INTELSAT 36 (IS-36)     
1 41747U 16053A   26177.84712437 -.00000012  00000+0  00000+0 0  9999
2 41747   0.0108  13.4633 0001739 328.7334 306.2396  1.00266822 36054
INSAT-3DR               
1 41752U 16054A   26178.10801734 -.00000065  00000+0  00000+0 0  9993
2 41752   0.1309  86.1866 0010052 186.7850 115.1093  1.00272424 35912
PERUSAT 1               
1 41770U 16058A   26178.32130299  .00000323  00000+0  79277-4 0  9995
2 41770  98.2023 251.8382 0001262  84.6269 275.5074 14.58564477520570
SKYSAT-C4               
1 41771U 16058B   26178.02393190  .00017634  00000+0  32846-3 0  9997
2 41771  96.9173 199.3847 0002116 140.2622 219.8786 15.48889148546995
SKYSAT-C5               
1 41772U 16058C   26178.08091030  .00007929  00000+0  23869-3 0  9993
2 41772  97.0469 218.2797 0001255 217.2936 142.8221 15.34605678545264
SKYSAT-C2               
1 41773U 16058D   26178.05719803  .00012888  00000+0  30115-3 0  9998
2 41773  97.0164 199.7812 0003773  48.8465 311.3108 15.42289113546573
SKYSAT-C3               
1 41774U 16058E   26178.32572818  .00023961  00000+0  38563-3 0  9991
2 41774  96.9009 208.7836 0001261 122.4078 237.7298 15.52965864547685
PISAT                   
1 41784U 16059B   26177.95262248  .00000903  00000+0  16112-3 0  9991
2 41784  97.8180 177.9858 0029196 171.3443 188.8272 14.68999168521177
ALSAT-1B                
1 41785U 16059C   26178.29874047  .00000267  00000+0  49775-4 0  9991
2 41785  97.7750 186.6261 0008903 184.5989 175.5139 14.72281630522066
ALSAT-2B                
1 41786U 16059D   26178.27890426  .00000954  00000+0  16387-3 0  9994
2 41786  97.9897 240.3569 0001578 114.4762 245.6609 14.70885213522259
PATHFINDER 1            
1 41787U 16059E   26178.22667878  .00000593  00000+0  11180-3 0  9998
2 41787  97.8167 177.0499 0028645 171.3104 188.8603 14.67673782521188
